LEMUR-2-ARIANNA         
1 62699U 25009CU  26065.20727123  .00009108  00000+0  72132-3 0  9996
2 62699  97.7010 147.5424 0004454 154.0621 206.0827 15.00801092 62101
LEMUR-2-ALISIA          
1 62706U 25009DB  26065.53807708  .00010023  00000+0  78743-3 0  9991
2 62706  97.7056 148.5239 0006446 166.6446 193.4950 15.01073139 84757
LEMUR-2-ROUNDTRIPPER    
1 62711U 25009DG  26065.23066659  .00010277  00000+0  78819-3 0  9991
2 62711  97.7303 148.1863 0004860 133.0494 227.1138 15.01990374 62169
LEMUR-2-MYNAMEISJEFF    
1 62712U 25009DH  26065.22920764  .00010871  00000+0  83370-3 0  9995
2 62712  97.7352 148.5049 0004044 159.1824 200.9565 15.01981468 62161
LEMUR-2-LEIA-PHILIP     
1 63246U 25052AN  26065.27218652  .00006620  00000+0  58620-3 0  9994
2 63246  97.6959 318.9246 0002949 189.4131 170.7036 14.96584046 53270
LEMUR-2-LIA-MARTIN      
1 63248U 25052AQ  26065.42767918  .00006868  00000+0  60530-3 0  9994
2 63248  97.7006 319.4370 0003335 151.8132 208.3271 14.96753435 53307
LEMUR-2-DELOITTE-1      
1 63259U 25052BB  26065.53013106  .00006578  00000+0  57999-3 0  9994
2 63259  97.7049 319.8506 0003257  85.6718 274.4876 14.96755624 53338
LEMUR-2-EMERSONROSE     
1 63261U 25052BD  26065.27220025  .00006665  00000+0  56653-3 0  9991
2 63261  97.7030 319.9492 0003113  57.8630 302.2894 14.98179639 53328
LEMUR-2-MARACHE-FRAN    
1 63262U 25052BE  26065.63796651  .00009011  00000+0  75105-3 0  9996
2 63262  97.6993 320.5009 0002344  44.4000 315.7410 14.98840664 53399
LEMUR-2-THEFALCONER     
1 63264U 25052BG  26065.27393425  .00005742  00000+0  51077-3 0  9999
2 63264  97.6984 319.3302 0002537  25.9624 334.1724 14.96460850 53298
LEMUR-2-UNTITLED-SC     
1 63351U 25061A   26065.51846536  .00006125  00000+0  35283-3 0  9996
2 63351  97.5558  41.7455 0017103 258.4505 101.4806 15.12654730 52063
LEMUR-2-ESPERANZA       
1 63352U 25061B   26064.97223200  .00004804  00000+0  27713-3 0  9994
2 63352  97.5560  41.2754 0016760 259.7281 100.2060 15.12721024 51987
LEMUR-2-KREMPEL-BRO2    
1 63353U 25061C   26065.35897654  .00006241  00000+0  35464-3 0  9997
2 63353  97.5607  42.0609 0017832 250.3611 109.5696 15.13131153 52058
LEMUR-2-THERMORAPTOR    
1 63354U 25061D   26065.47802628  .00006647  00000+0  37664-3 0  9992
2 63354  97.5616  42.2363 0017528 248.8983 111.0374 15.13211379 52076
LEMUR-2-NEUROSPICY      
1 63355U 25061E   26065.39129664  .00006102  00000+0  34531-3 0  9992
2 63355  97.5543  41.8569 0015233 252.9602 106.9960 15.13323194 52066
LEMUR-2-TILLINFINITY    
1 63356U 25061F   26065.40006937  .00006162  00000+0  34293-3 0  9993
2 63356  97.5530  42.0844 0016635 240.1253 119.8326 15.13899547 52081
