[{"OBJECT_NAME":"LEMUR-2-ARIANNA","OBJECT_ID":"2025-009CU","EPOCH":"2026-03-06T04:58:28.234272","MEAN_MOTION":15.00801092,"ECCENTRICITY":0.0004454,"INCLINATION":97.701,"RA_OF_ASC_NODE":147.5424,"ARG_OF_PERICENTER":154.0621,"MEAN_ANOMALY":206.0827,"EPHEMERIS_TYPE":0,"CLASSIFICATION_TYPE":"U","NORAD_CAT_ID":62699,"ELEMENT_SET_NO":999,"REV_AT_EPOCH":6210,"BSTAR":0.00072132414,"MEAN_MOTION_DOT":9.108e-5,"MEAN_MOTION_DDOT":0},{"OBJECT_NAME":"LEMUR-2-ALISIA","OBJECT_ID":"2025-009DB","EPOCH":"2026-03-06T12:54:49.859712","MEAN_MOTION":15.01073139,"ECCENTRICITY":0.00064465,"INCLINATION":97.7056,"RA_OF_ASC_NODE":148.5239,"ARG_OF_PERICENTER":166.6446,"MEAN_ANOMALY":193.495,"EPHEMERIS_TYPE":0,"CLASSIFICATION_TYPE":"U","NORAD_CAT_ID":62706,"ELEMENT_SET_NO":999,"REV_AT_EPOCH":8475,"BSTAR":0.00078742538,"MEAN_MOTION_DOT":0.00010023,"MEAN_MOTION_DDOT":0},{"OBJECT_NAME":"LEMUR-2-ROUNDTRIPPER","OBJECT_ID":"2025-009DG","EPOCH":"2026-03-06T05:32:09.593376","MEAN_MOTION":15.01990374,"ECCENTRICITY":0.00048606,"INCLINATION":97.7303,"RA_OF_ASC_NODE":148.1863,"ARG_OF_PERICENTER":133.0494,"MEAN_ANOMALY":227.1138,"EPHEMERIS_TYPE":0,"CLASSIFICATION_TYPE":"U","NORAD_CAT_ID":62711,"ELEMENT_SET_NO":999,"REV_AT_EPOCH":6216,"BSTAR":0.00078818541,"MEAN_MOTION_DOT":0.00010277,"MEAN_MOTION_DDOT":0},{"OBJECT_NAME":"LEMUR-2-MYNAMEISJEFF","OBJECT_ID":"2025-009DH","EPOCH":"2026-03-06T05:30:03.540096","MEAN_MOTION":15.01981468,"ECCENTRICITY":0.00040449,"INCLINATION":97.7352,"RA_OF_ASC_NODE":148.5049,"ARG_OF_PERICENTER":159.1824,"MEAN_ANOMALY":200.9565,"EPHEMERIS_TYPE":0,"CLASSIFICATION_TYPE":"U","NORAD_CAT_ID":62712,"ELEMENT_SET_NO":999,"REV_AT_EPOCH":6216,"BSTAR":0.00083370029,"MEAN_MOTION_DOT":0.00010871,"MEAN_MOTION_DDOT":0},{"OBJECT_NAME":"LEMUR-2-LEIA-PHILIP","OBJECT_ID":"2025-052AN","EPOCH":"2026-03-06T06:31:56.915328","MEAN_MOTION":14.96584046,"ECCENTRICITY":0.00029496,"INCLINATION":97.6959,"RA_OF_ASC_NODE":318.9246,"ARG_OF_PERICENTER":189.4131,"MEAN_ANOMALY":170.7036,"EPHEMERIS_TYPE":0,"CLASSIFICATION_TYPE":"U","NORAD_CAT_ID":63246,"ELEMENT_SET_NO":999,"REV_AT_EPOCH":5327,"BSTAR":0.00058619646,"MEAN_MOTION_DOT":6.62e-5,"MEAN_MOTION_DDOT":0},{"OBJECT_NAME":"LEMUR-2-LIA-MARTIN","OBJECT_ID":"2025-052AQ","EPOCH":"2026-03-06T10:15:51.481152","MEAN_MOTION":14.96753435,"ECCENTRICITY":0.00033351,"INCLINATION":97.7006,"RA_OF_ASC_NODE":319.437,"ARG_OF_PERICENTER":151.8132,"MEAN_ANOMALY":208.3271,"EPHEMERIS_TYPE":0,"CLASSIFICATION_TYPE":"U","NORAD_CAT_ID":63248,"ELEMENT_SET_NO":999,"REV_AT_EPOCH":5330,"BSTAR":0.00060530257,"MEAN_MOTION_DOT":6.868e-5,"MEAN_MOTION_DDOT":0},{"OBJECT_NAME":"LEMUR-2-DELOITTE-1","OBJECT_ID":"2025-052BB","EPOCH":"2026-03-06T12:43:23.323584","MEAN_MOTION":14.96755624,"ECCENTRICITY":0.00032571,"INCLINATION":97.7049,"RA_OF_ASC_NODE":319.8506,"ARG_OF_PERICENTER":85.6718,"MEAN_ANOMALY":274.4876,"EPHEMERIS_TYPE":0,"CLASSIFICATION_TYPE":"U","NORAD_CAT_ID":63259,"ELEMENT_SET_NO":999,"REV_AT_EPOCH":5333,"BSTAR":0.0005799929,"MEAN_MOTION_DOT":6.578e-5,"MEAN_MOTION_DDOT":0},{"OBJECT_NAME":"LEMUR-2-EMERSONROSE","OBJECT_ID":"2025-052BD","EPOCH":"2026-03-06T06:31:58.101600","MEAN_MOTION":14.98179639,"ECCENTRICITY":0.00031134,"INCLINATION":97.703,"RA_OF_ASC_NODE":319.9492,"ARG_OF_PERICENTER":57.863,"MEAN_ANOMALY":302.2894,"EPHEMERIS_TYPE":0,"CLASSIFICATION_TYPE":"U","NORAD_CAT_ID":63261,"ELEMENT_SET_NO":999,"REV_AT_EPOCH":5332,"BSTAR":0.00056652856,"MEAN_MOTION_DOT":6.665e-5,"MEAN_MOTION_DDOT":0},{"OBJECT_NAME":"LEMUR-2-MARACHE-FRAN","OBJECT_ID":"2025-052BE","EPOCH":"2026-03-06T15:18:40.306464","MEAN_MOTION":14.98840664,"ECCENTRICITY":0.00023445,"INCLINATION":97.6993,"RA_OF_ASC_NODE":320.5009,"ARG_OF_PERICENTER":44.4,"MEAN_ANOMALY":315.741,"EPHEMERIS_TYPE":0,"CLASSIFICATION_TYPE":"U","NORAD_CAT_ID":63262,"ELEMENT_SET_NO":999,"REV_AT_EPOCH":5339,"BSTAR":0.00075104733,"MEAN_MOTION_DOT":9.011e-5,"MEAN_MOTION_DDOT":0},{"OBJECT_NAME":"LEMUR-2-THEFALCONER","OBJECT_ID":"2025-052BG","EPOCH":"2026-03-06T06:34:27.919200","MEAN_MOTION":14.9646085,"ECCENTRICITY":0.00025377,"INCLINATION":97.6984,"RA_OF_ASC_NODE":319.3302,"ARG_OF_PERICENTER":25.9624,"MEAN_ANOMALY":334.1724,"EPHEMERIS_TYPE":0,"CLASSIFICATION_TYPE":"U","NORAD_CAT_ID":63264,"ELEMENT_SET_NO":999,"REV_AT_EPOCH":5329,"BSTAR":0.00051076984,"MEAN_MOTION_DOT":5.742e-5,"MEAN_MOTION_DDOT":0},{"OBJECT_NAME":"LEMUR-2-UNTITLED-SC","OBJECT_ID":"2025-061A","EPOCH":"2026-03-06T12:26:35.407104","MEAN_MOTION":15.1265473,"ECCENTRICITY":0.00171036,"INCLINATION":97.5558,"RA_OF_ASC_NODE":41.7455,"ARG_OF_PERICENTER":258.4505,"MEAN_ANOMALY":101.4806,"EPHEMERIS_TYPE":0,"CLASSIFICATION_TYPE":"U","NORAD_CAT_ID":63351,"ELEMENT_SET_NO":999,"REV_AT_EPOCH":5206,"BSTAR":0.00035282516,"MEAN_MOTION_DOT":6.125e-5,"MEAN_MOTION_DDOT":0},{"OBJECT_NAME":"LEMUR-2-ESPERANZA","OBJECT_ID":"2025-061B","EPOCH":"2026-03-05T23:20:00.844800","MEAN_MOTION":15.12721024,"ECCENTRICITY":0.00167609,"INCLINATION":97.556,"RA_OF_ASC_NODE":41.2754,"ARG_OF_PERICENTER":259.7281,"MEAN_ANOMALY":100.206,"EPHEMERIS_TYPE":0,"CLASSIFICATION_TYPE":"U","NORAD_CAT_ID":63352,"ELEMENT_SET_NO":999,"REV_AT_EPOCH":5198,"BSTAR":0.00027713343,"MEAN_MOTION_DOT":4.804e-5,"MEAN_MOTION_DDOT":0},{"OBJECT_NAME":"LEMUR-2-KREMPEL-BRO2","OBJECT_ID":"2025-061C","EPOCH":"2026-03-06T08:36:55.573056","MEAN_MOTION":15.13131153,"ECCENTRICITY":0.00178328,"INCLINATION":97.5607,"RA_OF_ASC_NODE":42.0609,"ARG_OF_PERICENTER":250.3611,"MEAN_ANOMALY":109.5696,"EPHEMERIS_TYPE":0,"CLASSIFICATION_TYPE":"U","NORAD_CAT_ID":63353,"ELEMENT_SET_NO":999,"REV_AT_EPOCH":5205,"BSTAR":0.00035463919,"MEAN_MOTION_DOT":6.241e-5,"MEAN_MOTION_DDOT":0},{"OBJECT_NAME":"LEMUR-2-THERMORAPTOR","OBJECT_ID":"2025-061D","EPOCH":"2026-03-06T11:28:21.470592","MEAN_MOTION":15.13211379,"ECCENTRICITY":0.00175289,"INCLINATION":97.5616,"RA_OF_ASC_NODE":42.2363,"ARG_OF_PERICENTER":248.8983,"MEAN_ANOMALY":111.0374,"EPHEMERIS_TYPE":0,"CLASSIFICATION_TYPE":"U","NORAD_CAT_ID":63354,"ELEMENT_SET_NO":999,"REV_AT_EPOCH":5207,"BSTAR":0.00037664211,"MEAN_MOTION_DOT":6.647e-5,"MEAN_MOTION_DDOT":0},{"OBJECT_NAME":"LEMUR-2-NEUROSPICY","OBJECT_ID":"2025-061E","EPOCH":"2026-03-06T09:23:28.029696","MEAN_MOTION":15.13323194,"ECCENTRICITY":0.00152338,"INCLINATION":97.5543,"RA_OF_ASC_NODE":41.8569,"ARG_OF_PERICENTER":252.9602,"MEAN_ANOMALY":106.996,"EPHEMERIS_TYPE":0,"CLASSIFICATION_TYPE":"U","NORAD_CAT_ID":63355,"ELEMENT_SET_NO":999,"REV_AT_EPOCH":5206,"BSTAR":0.00034530943,"MEAN_MOTION_DOT":6.102e-5,"MEAN_MOTION_DDOT":0},{"OBJECT_NAME":"LEMUR-2-TILLINFINITY","OBJECT_ID":"2025-061F","EPOCH":"2026-03-06T09:36:05.993568","MEAN_MOTION":15.13899547,"ECCENTRICITY":0.00166352,"INCLINATION":97.553,"RA_OF_ASC_NODE":42.0844,"ARG_OF_PERICENTER":240.1253,"MEAN_ANOMALY":119.8326,"EPHEMERIS_TYPE":0,"CLASSIFICATION_TYPE":"U","NORAD_CAT_ID":63356,"ELEMENT_SET_NO":999,"REV_AT_EPOCH":5208,"BSTAR":0.00034292726,"MEAN_MOTION_DOT":6.162e-5,"MEAN_MOTION_DDOT":0}]
